{
  "type": "FeatureCollection",
  "features": [
    {
      "type": "Feature",
      "properties": {
        "norad_id": 66359,
        "name": "STARLINK-35805",
        "group": "last-30-days",
        "lat": -53.05351979855876,
        "lon": -132.8555334346203,
        "alt_km": 406.5060666621557,
        "timestamp": "2025-12-05T04:52:14.140647+00:00",
        "meta_object_name": "STARLINK-35805",
        "meta_object_id": "2025-254M",
        "meta_epoch": "2025-12-04T18:00:02.000160",
        "meta_mean_motion": 15.57505938,
        "meta_eccentricity": 0.0001337,
        "meta_inclination": 53.159,
        "meta_ra_of_asc_node": 314.8135,
        "meta_arg_of_pericenter": 108.758,
        "meta_mean_anomaly": 144.6646,
        "meta_ephemeris_type": 0,
        "meta_classification_type": "U",
        "meta_norad_cat_id": 66359,
        "meta_element_set_no": 999,
        "meta_rev_at_epoch": 560,
        "meta_bstar": -0.031162,
        "meta_mean_motion_dot": -0.02080842,
        "meta_mean_motion_ddot": 0,
        "tle_line1": "1 66359U 25254M   25338.75002315 -.02080842  00000+0 -31162-1 0  9990",
        "tle_line2": "2 66359  53.1590 314.8135 0001337 108.7580 144.6646 15.57505938  5602"
      },
      "geometry": {
        "type": "Point",
        "coordinates": [
          -132.8555334346203,
          -53.05351979855876
        ]
      }
    },
    {
      "type": "Feature",
      "properties": {
        "norad_id": 66360,
        "name": "STARLINK-35823",
        "group": "last-30-days",
        "lat": -52.64489177946012,
        "lon": -126.5643560063862,
        "alt_km": 406.4577133500916,
        "timestamp": "2025-12-05T04:52:14.140656+00:00",
        "meta_object_name": "STARLINK-35823",
        "meta_object_id": "2025-254N",
        "meta_epoch": "2025-12-04T18:00:02.000160",
        "meta_mean_motion": 15.57504714,
        "meta_eccentricity": 0.0001258,
        "meta_inclination": 53.1592,
        "meta_ra_of_asc_node": 314.8048,
        "meta_arg_of_pericenter": 107.4083,
        "meta_mean_anomaly": 149.8498,
        "meta_ephemeris_type": 0,
        "meta_classification_type": "U",
        "meta_norad_cat_id": 66360,
        "meta_element_set_no": 999,
        "meta_rev_at_epoch": 563,
        "meta_bstar": -0.031152,
        "meta_mean_motion_dot": -0.02080103,
        "meta_mean_motion_ddot": 0,
        "tle_line1": "1 66360U 25254N   25338.75002315 -.02080103  00000+0 -31152-1 0  9991",
        "tle_line2": "2 66360  53.1592 314.8048 0001258 107.4083 149.8498 15.57504714  5631"
      },
      "geometry": {
        "type": "Point",
        "coordinates": [
          -126.5643560063862,
          -52.64489177946012
        ]
      }
    },
    {
      "type": "Feature",
      "properties": {
        "norad_id": 66361,
        "name": "STARLINK-35813",
        "group": "last-30-days",
        "lat": -52.8908750759545,
        "lon": -129.69433126535333,
        "alt_km": 406.4986387901117,
        "timestamp": "2025-12-05T04:52:14.140664+00:00",
        "meta_object_name": "STARLINK-35813",
        "meta_object_id": "2025-254P",
        "meta_epoch": "2025-12-04T18:00:02.000160",
        "meta_mean_motion": 15.57503067,
        "meta_eccentricity": 0.0001326,
        "meta_inclination": 53.1591,
        "meta_ra_of_asc_node": 314.8096,
        "meta_arg_of_pericenter": 109.3609,
        "meta_mean_anomaly": 145.9807,
        "meta_ephemeris_type": 0,
        "meta_classification_type": "U",
        "meta_norad_cat_id": 66361,
        "meta_element_set_no": 999,
        "meta_rev_at_epoch": 563,
        "meta_bstar": -0.031116,
        "meta_mean_motion_dot": -0.02077935,
        "meta_mean_motion_ddot": 0,
        "tle_line1": "1 66361U 25254P   25338.75002315 -.02077935  00000+0 -31116-1 0  9991",
        "tle_line2": "2 66361  53.1591 314.8096 0001326 109.3609 145.9807 15.57503067  5636"
      },
      "geometry": {
        "type": "Point",
        "coordinates": [
          -129.69433126535333,
          -52.8908750759545
        ]
      }
    },
    {
      "type": "Feature",
      "properties": {
        "norad_id": 66362,
        "name": "STARLINK-35822",
        "group": "last-30-days",
        "lat": -51.909935184951976,
        "lon": -120.43686462496247,
        "alt_km": 406.4780118674935,
        "timestamp": "2025-12-05T04:52:14.140673+00:00",
        "meta_object_name": "STARLINK-35822",
        "meta_object_id": "2025-254Q",
        "meta_epoch": "2025-12-04T18:00:02.000160",
        "meta_mean_motion": 15.57501981,
        "meta_eccentricity": 0.00013,
        "meta_inclination": 53.1591,
        "meta_ra_of_asc_node": 314.7971,
        "meta_arg_of_pericenter": 102.7908,
        "meta_mean_anomaly": 158.3021,
        "meta_ephemeris_type": 0,
        "meta_classification_type": "U",
        "meta_norad_cat_id": 66362,
        "meta_element_set_no": 999,
        "meta_rev_at_epoch": 563,
        "meta_bstar": -0.031106,
        "meta_mean_motion_dot": -0.02077206,
        "meta_mean_motion_ddot": 0,
        "tle_line1": "1 66362U 25254Q   25338.75002315 -.02077206  00000+0 -31106-1 0  9992",
        "tle_line2": "2 66362  53.1591 314.7971 0001300 102.7908 158.3021 15.57501981  5638"
      },
      "geometry": {
        "type": "Point",
        "coordinates": [
          -120.43686462496247,
          -51.909935184951976
        ]
      }
    },
    {
      "type": "Feature",
      "properties": {
        "norad_id": 66363,
        "name": "STARLINK-35806",
        "group": "last-30-days",
        "lat": -52.31717454050578,
        "lon": -123.4763539130106,
        "alt_km": 406.4859874409767,
        "timestamp": "2025-12-05T04:52:14.140682+00:00",
        "meta_object_name": "STARLINK-35806",
        "meta_object_id": "2025-254R",
        "meta_epoch": "2025-12-04T18:00:02.000160",
        "meta_mean_motion": 15.57501163,
        "meta_eccentricity": 0.0001297,
        "meta_inclination": 53.159,
        "meta_ra_of_asc_node": 314.8011,
        "meta_arg_of_pericenter": 102.0856,
        "meta_mean_anomaly": 157.0912,
        "meta_ephemeris_type": 0,
        "meta_classification_type": "U",
        "meta_norad_cat_id": 66363,
        "meta_element_set_no": 999,
        "meta_rev_at_epoch": 561,
        "meta_bstar": -0.031093,
        "meta_mean_motion_dot": -0.02076405,
        "meta_mean_motion_ddot": 0,
        "tle_line1": "1 66363U 25254R   25338.75002315 -.02076405  00000+0 -31093-1 0  9998",
        "tle_line2": "2 66363  53.1590 314.8011 0001297 102.0856 157.0912 15.57501163  5619"
      },
      "geometry": {
        "type": "Point",
        "coordinates": [
          -123.4763539130106,
          -52.31717454050578
        ]
      }
    },
    {
      "type": "Feature",
      "properties": {
        "norad_id": 66364,
        "name": "STARLINK-35797",
        "group": "last-30-days",
        "lat": -51.42574274439868,
        "lon": -117.45677841740216,
        "alt_km": 406.45097061801334,
        "timestamp": "2025-12-05T04:52:14.140692+00:00",
        "meta_object_name": "STARLINK-35797",
        "meta_object_id": "2025-254S",
        "meta_epoch": "2025-12-04T18:00:02.000160",
        "meta_mean_motion": 15.57502355,
        "meta_eccentricity": 0.000128,
        "meta_inclination": 53.1594,
        "meta_ra_of_asc_node": 314.7926,
        "meta_arg_of_pericenter": 104.2788,
        "meta_mean_anomaly": 158.731,
        "meta_ephemeris_type": 0,
        "meta_classification_type": "U",
        "meta_norad_cat_id": 66364,
        "meta_element_set_no": 999,
        "meta_rev_at_epoch": 563,
        "meta_bstar": -0.031114,
        "meta_mean_motion_dot": -0.02077696,
        "meta_mean_motion_ddot": 0,
        "tle_line1": "1 66364U 25254S   25338.75002315 -.02077696  00000+0 -31114-1 0  9996",
        "tle_line2": "2 66364  53.1594 314.7926 0001280 104.2788 158.7310 15.57502355  5634"
      },
      "geometry": {
        "type": "Point",
        "coordinates": [
          -117.45677841740216,
          -51.42574274439868
        ]
      }
    },
    {
      "type": "Feature",
      "properties": {
        "norad_id": 66365,
        "name": "STARLINK-35827",
        "group": "last-30-days",
        "lat": -50.23800671734374,
        "lon": -111.7046706447371,
        "alt_km": 406.3970476609129,
        "timestamp": "2025-12-05T04:52:14.140701+00:00",
        "meta_object_name": "STARLINK-35827",
        "meta_object_id": "2025-254T",
        "meta_epoch": "2025-12-04T18:00:02.000160",
        "meta_mean_motion": 15.57502861,
        "meta_eccentricity": 0.0001254,
        "meta_inclination": 53.1594,
        "meta_ra_of_asc_node": 314.7854,
        "meta_arg_of_pericenter": 102.4713,
        "meta_mean_anomaly": 164.372,
        "meta_ephemeris_type": 0,
        "meta_classification_type": "U",
        "meta_norad_cat_id": 66365,
        "meta_element_set_no": 999,
        "meta_rev_at_epoch": 561,
        "meta_bstar": -0.031123,
        "meta_mean_motion_dot": -0.02078295,
        "meta_mean_motion_ddot": 0,
        "tle_line1": "1 66365U 25254T   25338.75002315 -.02078295  00000+0 -31123-1 0  9993",
        "tle_line2": "2 66365  53.1594 314.7854 0001254 102.4713 164.3720 15.57502861  5612"
      },
      "geometry": {
        "type": "Point",
        "coordinates": [
          -111.7046706447371,
          -50.23800671734374
        ]
      }
    }
  ]
}